COSMOS 2251 DEB         
1 40225U 93036BVE 23258.19688951  .00017836  00000+0  28237-2 0  9999
2 40225  74.0397  75.5132 0009059  16.0816 103.3948 14.72200953616591
COSMOS 2251 DEB         
1 40228U 93036BVH 23258.53448007  .00001132  00000+0  38186-3 0  9993
2 40228  74.0578 331.2584 0025481 242.3118 179.2948 14.37948920606780
COSMOS 2251 DEB         
1 40230U 93036BVK 23257.86825642  .00002649  00000+0  82126-3 0  9992
2 40230  74.0492 314.3903 0021228 219.8259 258.2170 14.41516414645710
COSMOS 2251 DEB         
1 40232U 93036BVM 23258.58345774  .00099240  00000+0  47837-2 0  9999
2 40232  74.1044 304.9405 0011628  23.6957 128.5546 15.18167408636599
COSMOS 2251 DEB         
1 40233U 93036BVN 23256.87921801  .00005552  00000+0  15331-2 0  9998
2 40233  73.9448 218.7123 0056799 117.9061 242.7865 14.46032057637567
COSMOS 2251 DEB         
1 40236U 93036BVR 23236.75552303  .00000493  00000+0  56815-3 0  9995
2 40236  73.5409  25.6368 0547721 342.8482  15.4712 13.21526359425011
COSMOS 2251 DEB         
1 40237U 93036BVS 23258.15800248  .00009831  00000+0  22248-2 0  9995
2 40237  74.0446 208.9231 0005839  93.7093 279.8595 14.56252163474290
COSMOS 2251 DEB         
1 40238U 93036BVT 23252.31588689  .00002989  00000+0  31626-2 0  9997
2 40238  73.9889 246.4416 0570760  16.0662 345.7717 13.20286503431211
COSMOS 2251 DEB         
1 40239U 93036BVU 23258.13089564  .00001735  00000+0  37268-3 0  9999
2 40239  74.0314  38.9084 0093560 357.0514 178.9433 14.56678714476549
COSMOS 2251 DEB         
1 40792U 93036BVV 23254.14121619  .00004900  00000+0  11836-2 0  9997
2 40792  74.0517 178.3778 0022683 133.4919 291.2164 14.53232261511630
COSMOS 2251 DEB         
1 40793U 93036BVW 23257.00190383  .00001742  00000+0  94222-3 0  9992
2 40793  73.9806 159.9886 0224403 134.5901 227.3793 14.01220047567307
COSMOS 2251 DEB         
1 40794U 93036BVX 23253.44659931  .00007671  00000+0  19384-2 0  9998
2 40794  73.9884 283.8093 0033572 239.2234 186.4576 14.50803685498258
COSMOS 2251 DEB         
1 40796U 93036BVZ 23256.83307932  .00005062  00000+0  88461-3 0  9992
2 40796  74.0213 305.3051 0074356 288.7868 193.3285 14.66359273640652
COSMOS 2251 DEB         
1 40797U 93036BWA 23257.53367076  .00006872  00000+0  70032-3 0  9991
2 40797  73.9353 328.4095 0108160  75.4564 347.2955 14.86561913613398
COSMOS 2251 DEB         
1 40798U 93036BWB 23257.94446631  .00011663  00000+0  21923-2 0  9990
2 40798  74.0360 138.1657 0004731  79.7161 280.4540 14.64705043471916
COSMOS 2251 DEB         
1 40799U 93036BWC 23256.88550284  .00004550  00000+0  45643-3 0  9996
2 40799  73.9314 313.1994 0145274  27.9089 332.9782 14.84028731377487
