[{"OBJECT_NAME":"COSMOS 2251 DEB","OBJECT_ID":"1993-036BVE","EPOCH":"2023-09-15T04:43:31.253664","MEAN_MOTION":14.72200953,"ECCENTRICITY":0.0009059,"INCLINATION":74.0397,"RA_OF_ASC_NODE":75.5132,"ARG_OF_PERICENTER":16.0816,"MEAN_ANOMALY":103.3948,"EPHEMERIS_TYPE":0,"CLASSIFICATION_TYPE":"U","NORAD_CAT_ID":40225,"ELEMENT_SET_NO":999,"REV_AT_EPOCH":61659,"BSTAR":0.0028237,"MEAN_MOTION_DOT":0.00017836,"MEAN_MOTION_DDOT":0},{"OBJECT_NAME":"COSMOS 2251 DEB","OBJECT_ID":"1993-036BVH","EPOCH":"2023-09-15T12:49:39.078048","MEAN_MOTION":14.3794892,"ECCENTRICITY":0.0025481,"INCLINATION":74.0578,"RA_OF_ASC_NODE":331.2584,"ARG_OF_PERICENTER":242.3118,"MEAN_ANOMALY":179.2948,"EPHEMERIS_TYPE":0,"CLASSIFICATION_TYPE":"U","NORAD_CAT_ID":40228,"ELEMENT_SET_NO":999,"REV_AT_EPOCH":60678,"BSTAR":0.00038186,"MEAN_MOTION_DOT":1.132e-5,"MEAN_MOTION_DDOT":0},{"OBJECT_NAME":"COSMOS 2251 DEB","OBJECT_ID":"1993-036BVK","EPOCH":"2023-09-14T20:50:17.354688","MEAN_MOTION":14.41516414,"ECCENTRICITY":0.0021228,"INCLINATION":74.0492,"RA_OF_ASC_NODE":314.3903,"ARG_OF_PERICENTER":219.8259,"MEAN_ANOMALY":258.217,"EPHEMERIS_TYPE":0,"CLASSIFICATION_TYPE":"U","NORAD_CAT_ID":40230,"ELEMENT_SET_NO":999,"REV_AT_EPOCH":64571,"BSTAR":0.00082126,"MEAN_MOTION_DOT":2.649e-5,"MEAN_MOTION_DDOT":0},{"OBJECT_NAME":"COSMOS 2251 DEB","OBJECT_ID":"1993-036BVM","EPOCH":"2023-09-15T14:00:10.748736","MEAN_MOTION":15.18167408,"ECCENTRICITY":0.0011628,"INCLINATION":74.1044,"RA_OF_ASC_NODE":304.9405,"ARG_OF_PERICENTER":23.6957,"MEAN_ANOMALY":128.5546,"EPHEMERIS_TYPE":0,"CLASSIFICATION_TYPE":"U","NORAD_CAT_ID":40232,"ELEMENT_SET_NO":999,"REV_AT_EPOCH":63659,"BSTAR":0.0047837,"MEAN_MOTION_DOT":0.0009924,"MEAN_MOTION_DDOT":0},{"OBJECT_NAME":"COSMOS 2251 DEB","OBJECT_ID":"1993-036BVN","EPOCH":"2023-09-13T21:06:04.436064","MEAN_MOTION":14.46032057,"ECCENTRICITY":0.0056799,"INCLINATION":73.9448,"RA_OF_ASC_NODE":218.7123,"ARG_OF_PERICENTER":117.9061,"MEAN_ANOMALY":242.7865,"EPHEMERIS_TYPE":0,"CLASSIFICATION_TYPE":"U","NORAD_CAT_ID":40233,"ELEMENT_SET_NO":999,"REV_AT_EPOCH":63756,"BSTAR":0.0015331,"MEAN_MOTION_DOT":5.552e-5,"MEAN_MOTION_DDOT":0},{"OBJECT_NAME":"COSMOS 2251 DEB","OBJECT_ID":"1993-036BVR","EPOCH":"2023-08-24T18:07:57.189792","MEAN_MOTION":13.21526359,"ECCENTRICITY":0.0547721,"INCLINATION":73.5409,"RA_OF_ASC_NODE":25.6368,"ARG_OF_PERICENTER":342.8482,"MEAN_ANOMALY":15.4712,"EPHEMERIS_TYPE":0,"CLASSIFICATION_TYPE":"U","NORAD_CAT_ID":40236,"ELEMENT_SET_NO":999,"REV_AT_EPOCH":42501,"BSTAR":0.00056815,"MEAN_MOTION_DOT":4.93e-6,"MEAN_MOTION_DDOT":0},{"OBJECT_NAME":"COSMOS 2251 DEB","OBJECT_ID":"1993-036BVS","EPOCH":"2023-09-15T03:47:31.414272","MEAN_MOTION":14.56252163,"ECCENTRICITY":0.0005839,"INCLINATION":74.0446,"RA_OF_ASC_NODE":208.9231,"ARG_OF_PERICENTER":93.7093,"MEAN_ANOMALY":279.8595,"EPHEMERIS_TYPE":0,"CLASSIFICATION_TYPE":"U","NORAD_CAT_ID":40237,"ELEMENT_SET_NO":999,"REV_AT_EPOCH":47429,"BSTAR":0.0022248,"MEAN_MOTION_DOT":9.831e-5,"MEAN_MOTION_DDOT":0},{"OBJECT_NAME":"COSMOS 2251 DEB","OBJECT_ID":"1993-036BVT","EPOCH":"2023-09-09T07:34:52.627296","MEAN_MOTION":13.20286503,"ECCENTRICITY":0.057076,"INCLINATION":73.9889,"RA_OF_ASC_NODE":246.4416,"ARG_OF_PERICENTER":16.0662,"MEAN_ANOMALY":345.7717,"EPHEMERIS_TYPE":0,"CLASSIFICATION_TYPE":"U","NORAD_CAT_ID":40238,"ELEMENT_SET_NO":999,"REV_AT_EPOCH":43121,"BSTAR":0.0031626,"MEAN_MOTION_DOT":2.989e-5,"MEAN_MOTION_DDOT":0},{"OBJECT_NAME":"COSMOS 2251 DEB","OBJECT_ID":"1993-036BVU","EPOCH":"2023-09-15T03:08:29.383296","MEAN_MOTION":14.56678714,"ECCENTRICITY":0.009356,"INCLINATION":74.0314,"RA_OF_ASC_NODE":38.9084,"ARG_OF_PERICENTER":357.0514,"MEAN_ANOMALY":178.9433,"EPHEMERIS_TYPE":0,"CLASSIFICATION_TYPE":"U","NORAD_CAT_ID":40239,"ELEMENT_SET_NO":999,"REV_AT_EPOCH":47654,"BSTAR":0.00037268,"MEAN_MOTION_DOT":1.735e-5,"MEAN_MOTION_DDOT":0},{"OBJECT_NAME":"COSMOS 2251 DEB","OBJECT_ID":"1993-036BVV","EPOCH":"2023-09-11T03:23:21.078816","MEAN_MOTION":14.53232261,"ECCENTRICITY":0.0022683,"INCLINATION":74.0517,"RA_OF_ASC_NODE":178.3778,"ARG_OF_PERICENTER":133.4919,"MEAN_ANOMALY":291.2164,"EPHEMERIS_TYPE":0,"CLASSIFICATION_TYPE":"U","NORAD_CAT_ID":40792,"ELEMENT_SET_NO":999,"REV_AT_EPOCH":51163,"BSTAR":0.0011836,"MEAN_MOTION_DOT":4.9e-5,"MEAN_MOTION_DDOT":0},{"OBJECT_NAME":"COSMOS 2251 DEB","OBJECT_ID":"1993-036BVW","EPOCH":"2023-09-14T00:02:44.490912","MEAN_MOTION":14.01220047,"ECCENTRICITY":0.0224403,"INCLINATION":73.9806,"RA_OF_ASC_NODE":159.9886,"ARG_OF_PERICENTER":134.5901,"MEAN_ANOMALY":227.3793,"EPHEMERIS_TYPE":0,"CLASSIFICATION_TYPE":"U","NORAD_CAT_ID":40793,"ELEMENT_SET_NO":999,"REV_AT_EPOCH":56730,"BSTAR":0.00094222,"MEAN_MOTION_DOT":1.742e-5,"MEAN_MOTION_DDOT":0},{"OBJECT_NAME":"COSMOS 2251 DEB","OBJECT_ID":"1993-036BVX","EPOCH":"2023-09-10T10:43:06.180384","MEAN_MOTION":14.50803685,"ECCENTRICITY":0.0033572,"INCLINATION":73.9884,"RA_OF_ASC_NODE":283.8093,"ARG_OF_PERICENTER":239.2234,"MEAN_ANOMALY":186.4576,"EPHEMERIS_TYPE":0,"CLASSIFICATION_TYPE":"U","NORAD_CAT_ID":40794,"ELEMENT_SET_NO":999,"REV_AT_EPOCH":49825,"BSTAR":0.0019384,"MEAN_MOTION_DOT":7.671e-5,"MEAN_MOTION_DDOT":0},{"OBJECT_NAME":"COSMOS 2251 DEB","OBJECT_ID":"1993-036BVZ","EPOCH":"2023-09-13T19:59:38.053248","MEAN_MOTION":14.66359273,"ECCENTRICITY":0.0074356,"INCLINATION":74.0213,"RA_OF_ASC_NODE":305.3051,"ARG_OF_PERICENTER":288.7868,"MEAN_ANOMALY":193.3285,"EPHEMERIS_TYPE":0,"CLASSIFICATION_TYPE":"U","NORAD_CAT_ID":40796,"ELEMENT_SET_NO":999,"REV_AT_EPOCH":64065,"BSTAR":0.00088461,"MEAN_MOTION_DOT":5.062e-5,"MEAN_MOTION_DDOT":0},{"OBJECT_NAME":"COSMOS 2251 DEB","OBJECT_ID":"1993-036BWA","EPOCH":"2023-09-14T12:48:29.153664","MEAN_MOTION":14.86561913,"ECCENTRICITY":0.010816,"INCLINATION":73.9353,"RA_OF_ASC_NODE":328.4095,"ARG_OF_PERICENTER":75.4564,"MEAN_ANOMALY":347.2955,"EPHEMERIS_TYPE":0,"CLASSIFICATION_TYPE":"U","NORAD_CAT_ID":40797,"ELEMENT_SET_NO":999,"REV_AT_EPOCH":61339,"BSTAR":0.00070032,"MEAN_MOTION_DOT":6.872e-5,"MEAN_MOTION_DDOT":0},{"OBJECT_NAME":"COSMOS 2251 DEB","OBJECT_ID":"1993-036BWB","EPOCH":"2023-09-14T22:40:01.889184","MEAN_MOTION":14.64705043,"ECCENTRICITY":0.0004731,"INCLINATION":74.036,"RA_OF_ASC_NODE":138.1657,"ARG_OF_PERICENTER":79.7161,"MEAN_ANOMALY":280.454,"EPHEMERIS_TYPE":0,"CLASSIFICATION_TYPE":"U","NORAD_CAT_ID":40798,"ELEMENT_SET_NO":999,"REV_AT_EPOCH":47191,"BSTAR":0.0021923,"MEAN_MOTION_DOT":0.00011663,"MEAN_MOTION_DDOT":0},{"OBJECT_NAME":"COSMOS 2251 DEB","OBJECT_ID":"1993-036BWC","EPOCH":"2023-09-13T21:15:07.445376","MEAN_MOTION":14.84028731,"ECCENTRICITY":0.0145274,"INCLINATION":73.9314,"RA_OF_ASC_NODE":313.1994,"ARG_OF_PERICENTER":27.9089,"MEAN_ANOMALY":332.9782,"EPHEMERIS_TYPE":0,"CLASSIFICATION_TYPE":"U","NORAD_CAT_ID":40799,"ELEMENT_SET_NO":999,"REV_AT_EPOCH":37748,"BSTAR":0.00045643,"MEAN_MOTION_DOT":4.55e-5,"MEAN_MOTION_DDOT":0}]
